[{"OBJECT_NAME":"TYVAK-182A","OBJECT_ID":"2021-034D","EPOCH":"2026-03-09T17:04:17.866560","MEAN_MOTION":15.0515042,"ECCENTRICITY":0.00048625,"INCLINATION":97.5843,"RA_OF_ASC_NODE":129.3711,"ARG_OF_PERICENTER":316.565,"MEAN_ANOMALY":43.5193,"EPHEMERIS_TYPE":0,"CLASSIFICATION_TYPE":"U","NORAD_CAT_ID":48271,"ELEMENT_SET_NO":999,"REV_AT_EPOCH":26486,"BSTAR":0.00050672592,"MEAN_MOTION_DOT":7.163e-5,"MEAN_MOTION_DDOT":0},{"OBJECT_NAME":"STARLINK-6172","OBJECT_ID":"2023-090AF","EPOCH":"2026-03-09T22:16:22.559232","MEAN_MOTION":15.02534668,"ECCENTRICITY":0.00012086,"INCLINATION":43.0027,"RA_OF_ASC_NODE":272.9729,"ARG_OF_PERICENTER":273.0906,"MEAN_ANOMALY":86.9798,"EPHEMERIS_TYPE":0,"CLASSIFICATION_TYPE":"U","NORAD_CAT_ID":57130,"ELEMENT_SET_NO":999,"REV_AT_EPOCH":15026,"BSTAR":5.2826197e-5,"MEAN_MOTION_DOT":5.1e-6,"MEAN_MOTION_DDOT":0}]
